[{"OBJECT_NAME":"STARLINK-33545","OBJECT_ID":"2024-220P","EPOCH":"2026-03-09T10:12:03.261600","MEAN_MOTION":15.27607917,"ECCENTRICITY":0.00031045,"INCLINATION":43.0013,"RA_OF_ASC_NODE":206.7886,"ARG_OF_PERICENTER":295.1029,"MEAN_ANOMALY":64.9501,"EPHEMERIS_TYPE":0,"CLASSIFICATION_TYPE":"U","NORAD_CAT_ID":62101,"ELEMENT_SET_NO":999,"REV_AT_EPOCH":7298,"BSTAR":0.0014409794,"MEAN_MOTION_DOT":0.00039641,"MEAN_MOTION_DDOT":0},{"OBJECT_NAME":"OBJECT V","OBJECT_ID":"2025-155V","EPOCH":"2026-03-09T20:35:20.067360","MEAN_MOTION":15.27583301,"ECCENTRICITY":0.00080353,"INCLINATION":97.4485,"RA_OF_ASC_NODE":37.249,"ARG_OF_PERICENTER":152.8264,"MEAN_ANOMALY":207.3397,"EPHEMERIS_TYPE":0,"CLASSIFICATION_TYPE":"U","NORAD_CAT_ID":64895,"ELEMENT_SET_NO":999,"REV_AT_EPOCH":6557,"BSTAR":0.00051002361,"MEAN_MOTION_DOT":0.00013705,"MEAN_MOTION_DDOT":0}]
